{
    "links": {
        "self": "http://www.neowsapp.com/rest/v1/neo/3423763?api_key=iIulBulltgU6a56xZRHN4H3l9WmuAYTsLGpBGhQ2"
    },
    "id": "3423763",
    "neo_reference_id": "3423763",
    "name": "(2008 PK9)",
    "designation": "2008 PK9",
    "nasa_jpl_url": "http://ssd.jpl.nasa.gov/sbdb.cgi?sstr=3423763",
    "absolute_magnitude_h": 23.2,
    "estimated_diameter": {
        "kilometers": {
            "estimated_diameter_min": 0.0608912622,
            "estimated_diameter_max": 0.1361570015
        },
        "meters": {
            "estimated_diameter_min": 60.8912622106,
            "estimated_diameter_max": 136.1570015386
        },
        "miles": {
            "estimated_diameter_min": 0.0378360645,
            "estimated_diameter_max": 0.0846040122
        },
        "feet": {
            "estimated_diameter_min": 199.7744887109,
            "estimated_diameter_max": 446.7093369279
        }
    },
    "is_potentially_hazardous_asteroid": false,
    "close_approach_data": [
        {
            "close_approach_date": "2008-08-11",
            "close_approach_date_full": "2008-Aug-11 15:44",
            "epoch_date_close_approach": 1218469440000,
            "relative_velocity": {
                "kilometers_per_second": "25.8667340397",
                "kilometers_per_hour": "93120.242542785",
                "miles_per_hour": "57861.297373321"
            },
            "miss_distance": {
                "astronomical": "0.028757275",
                "lunar": "11.186579975",
                "kilometers": "4302027.08700425",
                "miles": "2673155.67598865"
            },
            "orbiting_body": "Earth"
        }
    ],
    "orbital_data": {
        "orbit_id": "7",
        "orbit_determination_date": "2017-04-06 09:03:06",
        "first_observation_date": "2008-08-08",
        "last_observation_date": "2008-08-08",
        "data_arc_in_days": null,
        "observations_used": 17,
        "orbit_uncertainty": "9",
        "minimum_orbit_intersection": ".00523279",
        "jupiter_tisserand_invariant": "3.865",
        "epoch_osculation": "2454687.5",
        "eccentricity": ".7246237962246074",
        "semi_major_axis": "1.637142854629858",
        "inclination": "27.40092085463768",
        "ascending_node_longitude": "318.4873489077081",
        "orbital_period": "765.1177764230414",
        "perihelion_distance": ".4508301843459798",
        "perihelion_argument": "108.0273893593064",
        "aphelion_distance": "2.823455524913737",
        "perihelion_time": "2454739.220720394661",
        "mean_anomaly": "335.664584047276",
        "mean_motion": ".4705157965130747",
        "equinox": "J2000",
        "orbit_class": {
            "orbit_class_type": "APO",
            "orbit_class_description": "Near-Earth asteroid orbits which cross the Earth’s orbit similar to that of 1862 Apollo",
            "orbit_class_range": "a (semi-major axis) > 1.0 AU; q (perihelion) < 1.017 AU"
        }
    },
    "is_sentry_object": false
}